STARLINK-4766           
1 53840U 22114Y   26068.77499218 -.00000959  00000+0 -42169-4 0  9999
2 53840  53.2167 293.7971 0001443 103.3549 256.7604 15.08839965192984
LEMUR-2-KREMPEL-BRO2    
1 63353U 25061C   26068.86379735  .00007837  00000+0  44347-3 0  9993
2 63353  97.5616  45.5365 0017925 236.8576 123.0936 15.13192951 52586
